TEVEL2-2                
1 63219U 25052K   26068.64848259  .00020339  00000+0  69428-3 0  9991
2 63219  97.3987 324.7700 0004693 105.7930 254.3828 15.30343745 54855
STARLINK-35349          
1 65835U 25221N   26068.33313934  .00022314  00000+0  76326-3 0  9998
2 65835  53.1591  90.3675 0001193  85.8820 274.2317 15.30199749 24671
